[{"OBJECT_NAME":"IRIDIUM 132","OBJECT_ID":"2017-061G","EPOCH":"2026-03-09T22:35:22.589952","MEAN_MOTION":14.34217397,"ECCENTRICITY":0.00019726,"INCLINATION":86.3913,"RA_OF_ASC_NODE":66.7375,"ARG_OF_PERICENTER":90.1934,"MEAN_ANOMALY":269.9487,"EPHEMERIS_TYPE":0,"CLASSIFICATION_TYPE":"U","NORAD_CAT_ID":42961,"ELEMENT_SET_NO":999,"REV_AT_EPOCH":44059,"BSTAR":-6.187907e-6,"MEAN_MOTION_DOT":2.0e-8,"MEAN_MOTION_DDOT":0},{"OBJECT_NAME":"SL-8 R\/B","OBJECT_ID":"1987-006B","EPOCH":"2026-03-09T22:54:34.409088","MEAN_MOTION":14.39147667,"ECCENTRICITY":0.00279519,"INCLINATION":74.0605,"RA_OF_ASC_NODE":347.558,"ARG_OF_PERICENTER":109.062,"MEAN_ANOMALY":251.3565,"EPHEMERIS_TYPE":0,"CLASSIFICATION_TYPE":"U","NORAD_CAT_ID":17304,"ELEMENT_SET_NO":999,"REV_AT_EPOCH":5128,"BSTAR":0.00011866842,"MEAN_MOTION_DOT":3.43e-6,"MEAN_MOTION_DDOT":0}]
